$$SOE
2460721.500000000, A.D. 2025-Feb-15 00:00:00.0000, -2.226783785149355E+08, -4.503246459038379E+08, -4.983886540194479E+07,
2460728.500000000, A.D. 2025-Feb-22 00:00:00.0000, -2.142110452694460E+08, -4.544837440849864E+08, -5.144601744276935E+07,
2460735.500000000, A.D. 2025-Mar-01 00:00:00.0000, -2.056629948650730E+08, -4.584716614528094E+08, -5.303378415267897E+07,
2460742.500000000, A.D. 2025-Mar-08 00:00:00.0000, -1.970375441203693E+08, -4.622871157602080E+08, -5.460159308948740E+07,
2460749.500000000, A.D. 2025-Mar-15 00:00:00.0000, -1.883380254533080E+08, -4.659288818509821E+08, -5.614887967210144E+07,
2460756.500000000, A.D. 2025-Mar-22 00:00:00.0000, -1.795677882943456E+08, -4.693957911922432E+08, -5.767508701790887E+07,
2460763.500000000, A.D. 2025-Mar-29 00:00:00.0000, -1.707301991408660E+08, -4.726867336603677E+08, -5.917966608749050E+07,
2460770.500000000, A.D. 2025-Apr-05 00:00:00.0000, -1.618286399276317E+08, -4.758006584436326E+08, -6.066207591065684E+07,
2460777.500000000, A.D. 2025-Apr-12 00:00:00.0000, -1.528665066392746E+08, -4.787365739581984E+08, -6.212178370919186E+07,
2460784.500000000, A.D. 2025-Apr-19 00:00:00.0000, -1.438472083519394E+08, -4.814935476588171E+08, -6.355826497159925E+07,
2460791.500000000, A.D. 2025-Apr-26 00:00:00.0000, -1.347741664322561E+08, -4.840707059469637E+08, -6.497100352171671E+07,
2460798.500000000, A.D. 2025-May-03 00:00:00.0000, -1.256508137796533E+08, -4.864672341565844E+08, -6.635949159030351E+07,
2460805.500000000, A.D. 2025-May-10 00:00:00.0000, -1.164805940829055E+08, -4.886823766080217E+08, -6.772322989164284E+07,
2460812.500000000, A.D. 2025-May-17 00:00:00.0000, -1.072669610534128E+08, -4.907154367703959E+08, -6.906172771191016E+07,
2460819.500000000, A.D. 2025-May-24 00:00:00.0000, -9.801337746024898E+07, -4.925657775864183E+08, -7.037450302971831E+07,
2460826.500000000, A.D. 2025-May-31 00:00:00.0000, -8.872331354807734E+07, -4.942328216487140E+08, -7.166108268185171E+07,
2460833.500000000, A.D. 2025-Jun-07 00:00:00.0000, -7.940024523805761E+07, -4.957160500233230E+08, -7.292100243915704E+07,
2460840.500000000, A.D. 2025-Jun-14 00:00:00.0000, -7.004765447574808E+07, -4.970150003873668E+08, -7.415380683035102E+07,
2460847.500000000, A.D. 2025-Jun-21 00:00:00.0000, -6.066903050846288E+07, -4.981292677522123E+08, -7.535904909280401E+07,
2460854.500000000, A.D. 2025-Jun-28 00:00:00.0000, -5.126786896322443E+07, -4.990585060081916E+08, -7.653629139322010E+07,
2460861.500000000, A.D. 2025-Jul-05 00:00:00.0000, -4.184767024179080E+07, -4.998024281351116E+08, -7.768510500301403E+07,
2460868.500000000, A.D. 2025-Jul-12 00:00:00.0000, -3.241193842346270E+07, -5.003608058839490E+08, -7.880507038495436E+07,
2460875.500000000, A.D. 2025-Jul-19 00:00:00.0000, -2.296418048562392E+07, -5.007334695046042E+08, -7.989577725542536E+07,
2460882.500000000, A.D. 2025-Jul-26 00:00:00.0000, -1.350790563153812E+07, -5.009203075760105E+08, -8.095682464614502E+07,
2460889.500000000, A.D. 2025-Aug-02 00:00:00.0000, -4.046624659371265E+06, -5.009212669166206E+08, -8.198782096952635E+07,
2460896.500000000, A.D. 2025-Aug-09 00:00:00.0000, 5.416150651743617E+06, -5.007363525896519E+08, -8.298838409099659E+07,
2460903.500000000, A.D. 2025-Aug-16 00:00:00.0000, 1.487690821626729E+07, -5.003656280662963E+08, -8.395814142049631E+07,
2460910.500000000, A.D. 2025-Aug-23 00:00:00.0000, 2.433213667058135E+07, -4.998092155305400E+08, -8.489673004862136E+07,
2460917.500000000, A.D. 2025-Aug-30 00:00:00.0000, 3.377832708430534E+07, -4.990672956116405E+08, -8.580379689911285E+07,
2460924.500000000, A.D. 2025-Sep-06 00:00:00.0000, 4.321197393659234E+07, -4.981401055436575E+08, -8.667899868560869E+07,
2460931.500000000, A.D. 2025-Sep-13 00:00:00.0000, 5.262957368702424E+07, -4.970279382337710E+08, -8.752200172187924E+07,
2460938.500000000, A.D. 2025-Sep-20 00:00:00.0000, 6.202762421538890E+07, -4.957311438828633E+08, -8.833248201982883E+07,
2460945.500000000, A.D. 2025-Sep-27 00:00:00.0000, 7.140262618993334E+07, -4.942501310469574E+08, -8.911012551802641E+07,
2460952.500000000, A.D. 2025-Oct-04 00:00:00.0000, 8.075108434795250E+07, -4.925853666005259E+08, -8.985462821170598E+07,
2460959.500000000, A.D. 2025-Oct-11 00:00:00.0000, 9.006950831547187E+07, -4.907373755444407E+08, -9.056569622695976E+07,
2460966.500000000, A.D. 2025-Oct-18 00:00:00.0000, 9.935441325012238E+07, -4.887067409324694E+08, -9.124304588752347E+07,
2460973.500000000, A.D. 2025-Oct-25 00:00:00.0000, 1.086023204471607E+08, -4.864941039045908E+08, -9.188640378604916E+07,
2460980.500000000, A.D. 2025-Nov-01 00:00:00.0000, 1.178097579485771E+08, -4.841001638106810E+08, -9.249550686225122E+07,
2460987.500000000, A.D. 2025-Nov-08 00:00:00.0000, 1.269732611905818E+08, -4.815256784549813E+08, -9.307010249379385E+07,
2460994.500000000, A.D. 2025-Nov-15 00:00:00.0000, 1.360893738382639E+08, -4.787714645192337E+08, -9.360994861855468E+07,
2461001.500000000, A.D. 2025-Nov-22 00:00:00.0000, 1.451546492109572E+08, -4.758383979441879E+08, -9.411481390762588E+07,
2461008.500000000, A.D. 2025-Nov-29 00:00:00.0000, 1.541656521455953E+08, -4.727274131345013E+08, -9.458447788265547E+07,
2461015.500000000, A.D. 2025-Dec-06 00:00:00.0000, 1.631189590206860E+08, -4.694395011225624E+08, -9.501873077997339E+07,
2461022.500000000, A.D. 2025-Dec-13 00:00:00.0000, 1.720111563747804E+08, -4.659757100601622E+08, -9.541737347671047E+07,
2461029.500000000, A.D. 2025-Dec-20 00:00:00.0000, 1.808388416135361E+08, -4.623371470138267E+08, -9.578021771583498E+07,
2461036.500000000, A.D. 2025-Dec-27 00:00:00.0000, 1.895986247323661E+08, -4.585249784724313E+08, -9.610708632014248E+07,
2461043.500000000, A.D. 2026-Jan-03 00:00:00.0000, 1.982871295955697E+08, -4.545404301822841E+08, -9.639781331174609E+07,
2461050.500000000, A.D. 2026-Jan-10 00:00:00.0000, 2.069009948814540E+08, -4.503847869873755E+08, -9.665224400238535E+07,
2461057.500000000, A.D. 2026-Jan-17 00:00:00.0000, 2.154368749257292E+08, -4.460593927643949E+08, -9.687023508289987E+07,
2461064.500000000, A.D. 2026-Jan-24 00:00:00.0000, 2.238914405411454E+08, -4.415656504273159E+08, -9.705165471658123E+07,
2461071.500000000, A.D. 2026-Jan-31 00:00:00.0000, 2.322613798374623E+08, -4.369050220062467E+08, -9.719638263867885E+07,
2461078.500000000, A.D. 2026-Feb-07 00:00:00.0000, 2.405433991046204E+08, -4.320790288556044E+08, -9.730431027221113E+07,
2461085.500000000, A.D. 2026-Feb-14 00:00:00.0000, 2.487342240139484E+08, -4.270892520056685E+08, -9.737534088475958E+07,
2461092.500000000, A.D. 2026-Feb-21 00:00:00.0000, 2.568306015264947E+08, -4.219373320804586E+08, -9.740938977508816E+07,
2461099.500000000, A.D. 2026-Feb-28 00:00:00.0000, 2.648293014242100E+08, -4.166249676290213E+08, -9.740638429617232E+07,
2461106.500000000, A.D. 2026-Mar-07 00:00:00.0000, 2.727271154048584E+08, -4.111539138198383E+08, -9.736626368506625E+07,
2461113.500000000, A.D. 2026-Mar-14 00:00:00.0000, 2.805208565158342E+08, -4.055259838294612E+08, -9.728897914435291E+07,
2461120.500000000, A.D. 2026-Mar-21 00:00:00.0000, 2.882073607101972E+08, -3.997430500260053E+08, -9.717449410154842E+07,
2461127.500000000, A.D. 2026-Mar-28 00:00:00.0000, 2.957834885161701E+08, -3.938070439182398E+08, -9.702278437793280E+07,
2461134.500000000, A.D. 2026-Apr-04 00:00:00.0000, 3.032461262167111E+08, -3.877199558352829E+08, -9.683383829010095E+07,
2461141.500000000, A.D. 2026-Apr-11 00:00:00.0000, 3.105921868133574E+08, -3.814838346960255E+08, -9.660765673845316E+07,
2461148.500000000, A.D. 2026-Apr-18 00:00:00.0000, 3.178186109339826E+08, -3.751007878741322E+08, -9.634425329745130E+07,
2461155.500000000, A.D. 2026-Apr-25 00:00:00.0000, 3.249223677306571E+08, -3.685729811430627E+08, -9.604365431028740E+07,
2461162.500000000, A.D. 2026-May-02 00:00:00.0000, 3.319004557985777E+08, -3.619026387296811E+08, -9.570589899279596E+07,
2461169.500000000, A.D. 2026-May-09 00:00:00.0000, 3.387499042410056E+08, -3.550920435412683E+08, -9.533103956301592E+07,
2461176.500000000, A.D. 2026-May-16 00:00:00.0000, 3.454677742589934E+08, -3.481435374261267E+08, -9.491914141946550E+07,
2461183.500000000, A.D. 2026-May-23 00:00:00.0000, 3.520511613190168E+08, -3.410595204446698E+08, -9.447028328932662E+07,
2461190.500000000, A.D. 2026-May-30 00:00:00.0000, 3.584971958207981E+08, -3.338424488314631E+08, -9.398455712989290E+07,
2461197.500000000, A.D. 2026-Jun-06 00:00:00.0000, 3.648030419474325E+08, -3.264948349210103E+08, -9.346206802151634E+07,
2461204.500000000, A.D. 2026-Jun-13 00:00:00.0000, 3.709658983631926E+08, -3.190192488363312E+08, -9.290293437172028E+07,
2461211.500000000, A.D. 2026-Jun-20 00:00:00.0000, 3.769830002584314E+08, -3.114183190126671E+08, -9.230728814544234E+07,
2461218.500000000, A.D. 2026-Jun-27 00:00:00.0000, 3.828516210437504E+08, -3.036947318953414E+08, -9.167527499363598E+07,
2461225.500000000, A.D. 2026-Jul-04 00:00:00.0000, 3.885690736934976E+08, -2.958512315857887E+08, -9.100705434374492E+07,
2461232.500000000, A.D. 2026-Jul-11 00:00:00.0000, 3.941327119925796E+08, -2.878906195666381E+08, -9.030279948627295E+07,
2461239.500000000, A.D. 2026-Jul-18 00:00:00.0000, 3.995399317793064E+08, -2.798157544790993E+08, -8.956269766399096E+07,
2461246.500000000, A.D. 2026-Jul-25 00:00:00.0000, 4.047881722085661E+08, -2.716295519489691E+08, -8.878695016588245E+07,
2461253.500000000, A.D. 2026-Aug-01 00:00:00.0000, 4.098749170829096E+08, -2.633349845083306E+08, -8.797577243412586E+07,
2461260.500000000, A.D. 2026-Aug-08 00:00:00.0000, 4.147976964655910E+08, -2.549350816473179E+08, -8.712939420652658E+07,
2461267.500000000, A.D. 2026-Aug-15 00:00:00.0000, 4.195540889901885E+08, -2.464329295436215E+08, -8.624805969540204E+07,
2461274.500000000, A.D. 2026-Aug-22 00:00:00.0000, 4.241417241063072E+08, -2.378316692471607E+08, -8.533202763326676E+07,
2461281.500000000, A.D. 2026-Aug-29 00:00:00.0000, 4.285582819723711E+08, -2.291344946924945E+08, -8.438157108752532E+07,
$$EOE